{
  "type": "FeatureCollection",
  "features": [
    {
      "type": "Feature",
      "properties": {
        "norad_id": 31058,
        "name": "FENGYUN 1C DEB",
        "group": "fengyun-1c-debris",
        "lat": -5.114921115704474,
        "lon": 122.80106500752596,
        "alt_km": 653.6908642106537,
        "timestamp": "2025-12-19T04:59:48.586452+00:00",
        "meta_object_name": "FENGYUN 1C DEB",
        "meta_object_id": "1999-025BFC",
        "meta_epoch": "2025-12-16T02:58:40.790208",
        "meta_mean_motion": 14.76385541,
        "meta_eccentricity": 0.00951524,
        "meta_inclination": 99.5654,
        "meta_ra_of_asc_node": 300.0182,
        "meta_arg_of_pericenter": 95.8616,
        "meta_mean_anomaly": 265.3444,
        "meta_ephemeris_type": 0,
        "meta_classification_type": "U",
        "meta_norad_cat_id": 31058,
        "meta_element_set_no": 999,
        "meta_rev_at_epoch": 99599,
        "meta_bstar": 0.00080135527,
        "meta_mean_motion_dot": 5.927e-05,
        "meta_mean_motion_ddot": 0,
        "tle_line1": "1 31058U 99025BFC 25350.12408322  .00005927  00000+0  80136-3 0  9992",
        "tle_line2": "2 31058  99.5654 300.0182 0095152  95.8616 265.3444 14.76385541995991"
      },
      "geometry": {
        "type": "Point",
        "coordinates": [
          122.80106500752596,
          -5.114921115704474
        ]
      }
    },
    {
      "type": "Feature",
      "properties": {
        "norad_id": 31062,
        "name": "FENGYUN 1C DEB",
        "group": "fengyun-1c-debris",
        "lat": 10.103638379500504,
        "lon": -3.14311413256123,
        "alt_km": 1062.2132161296422,
        "timestamp": "2025-12-19T04:59:48.586462+00:00",
        "meta_object_name": "FENGYUN 1C DEB",
        "meta_object_id": "1999-025BFG",
        "meta_epoch": "2025-12-17T19:04:10.170624",
        "meta_mean_motion": 13.75694526,
        "meta_eccentricity": 0.01715398,
        "meta_inclination": 98.9965,
        "meta_ra_of_asc_node": 173.9043,
        "meta_arg_of_pericenter": 304.4147,
        "meta_mean_anomaly": 69.4412,
        "meta_ephemeris_type": 0,
        "meta_classification_type": "U",
        "meta_norad_cat_id": 31062,
        "meta_element_set_no": 999,
        "meta_rev_at_epoch": 94303,
        "meta_bstar": 0.00025609308,
        "meta_mean_motion_dot": 2.33e-06,
        "meta_mean_motion_ddot": 0,
        "tle_line1": "1 31062U 99025BFG 25351.79456216  .00000233  00000+0  25609-3 0  9995",
        "tle_line2": "2 31062  98.9965 173.9043 0171539 304.4147  69.4412 13.75694526943039"
      },
      "geometry": {
        "type": "Point",
        "coordinates": [
          -3.14311413256123,
          10.103638379500504
        ]
      }
    },
    {
      "type": "Feature",
      "properties": {
        "norad_id": 31064,
        "name": "FENGYUN 1C DEB",
        "group": "fengyun-1c-debris",
        "lat": -36.814462943668524,
        "lon": -17.794007529099655,
        "alt_km": 660.8300074562703,
        "timestamp": "2025-12-19T04:59:48.586473+00:00",
        "meta_object_name": "FENGYUN 1C DEB",
        "meta_object_id": "1999-025BFJ",
        "meta_epoch": "2025-12-17T16:51:38.215296",
        "meta_mean_motion": 14.22146869,
        "meta_eccentricity": 0.02411952,
        "meta_inclination": 98.5744,
        "meta_ra_of_asc_node": 334.2562,
        "meta_arg_of_pericenter": 347.208,
        "meta_mean_anomaly": 192.2387,
        "meta_ephemeris_type": 0,
        "meta_classification_type": "U",
        "meta_norad_cat_id": 31064,
        "meta_element_set_no": 999,
        "meta_rev_at_epoch": 97325,
        "meta_bstar": 0.00032389847,
        "meta_mean_motion_dot": 9.17e-06,
        "meta_mean_motion_ddot": 0,
        "tle_line1": "1 31064U 99025BFJ 25351.70252564  .00000917  00000+0  32390-3 0  9992",
        "tle_line2": "2 31064  98.5744 334.2562 0241195 347.2080 192.2387 14.22146869973255"
      },
      "geometry": {
        "type": "Point",
        "coordinates": [
          -17.794007529099655,
          -36.814462943668524
        ]
      }
    },
    {
      "type": "Feature",
      "properties": {
        "norad_id": 31065,
        "name": "FENGYUN 1C DEB",
        "group": "fengyun-1c-debris",
        "lat": 33.90913192795527,
        "lon": 6.374507189341382,
        "alt_km": 772.2719629747953,
        "timestamp": "2025-12-19T04:59:48.586483+00:00",
        "meta_object_name": "FENGYUN 1C DEB",
        "meta_object_id": "1999-025BFK",
        "meta_epoch": "2025-12-17T19:12:35.367840",
        "meta_mean_motion": 14.28196453,
        "meta_eccentricity": 0.00349818,
        "meta_inclination": 98.4658,
        "meta_ra_of_asc_node": 10.7553,
        "meta_arg_of_pericenter": 16.5236,
        "meta_mean_anomaly": 343.7078,
        "meta_ephemeris_type": 0,
        "meta_classification_type": "U",
        "meta_norad_cat_id": 31065,
        "meta_element_set_no": 999,
        "meta_rev_at_epoch": 64650,
        "meta_bstar": 0.00070750012,
        "meta_mean_motion_dot": 1.731e-05,
        "meta_mean_motion_ddot": 0,
        "tle_line1": "1 31065U 99025BFK 25351.80040935  .00001731  00000+0  70750-3 0  9998",
        "tle_line2": "2 31065  98.4658  10.7553 0034981  16.5236 343.7078 14.28196453646502"
      },
      "geometry": {
        "type": "Point",
        "coordinates": [
          6.374507189341382,
          33.90913192795527
        ]
      }
    },
    {
      "type": "Feature",
      "properties": {
        "norad_id": 31068,
        "name": "FENGYUN 1C DEB",
        "group": "fengyun-1c-debris",
        "lat": -9.557173684158757,
        "lon": -23.426081152451385,
        "alt_km": 904.5098799988018,
        "timestamp": "2025-12-19T04:59:48.586493+00:00",
        "meta_object_name": "FENGYUN 1C DEB",
        "meta_object_id": "1999-025BFN",
        "meta_epoch": "2025-12-18T05:11:10.079232",
        "meta_mean_motion": 14.09194848,
        "meta_eccentricity": 0.01658276,
        "meta_inclination": 98.6292,
        "meta_ra_of_asc_node": 334.1581,
        "meta_arg_of_pericenter": 102.7701,
        "meta_mean_anomaly": 259.2059,
        "meta_ephemeris_type": 0,
        "meta_classification_type": "U",
        "meta_norad_cat_id": 31068,
        "meta_element_set_no": 999,
        "meta_rev_at_epoch": 96432,
        "meta_bstar": 9.338264e-05,
        "meta_mean_motion_dot": 1.44e-06,
        "meta_mean_motion_ddot": 0,
        "tle_line1": "1 31068U 99025BFN 25352.21608888  .00000144  00000+0  93383-4 0  9999",
        "tle_line2": "2 31068  98.6292 334.1581 0165827 102.7701 259.2059 14.09194848964322"
      },
      "geometry": {
        "type": "Point",
        "coordinates": [
          -23.426081152451385,
          -9.557173684158757
        ]
      }
    },
    {
      "type": "Feature",
      "properties": {
        "norad_id": 31069,
        "name": "FENGYUN 1C DEB",
        "group": "fengyun-1c-debris",
        "lat": 19.021742234272374,
        "lon": 150.9207719482044,
        "alt_km": 644.407217723593,
        "timestamp": "2025-12-19T04:59:48.586503+00:00",
        "meta_object_name": "FENGYUN 1C DEB",
        "meta_object_id": "1999-025BFP",
        "meta_epoch": "2025-12-15T06:58:24.353760",
        "meta_mean_motion": 14.57126924,
        "meta_eccentricity": 0.01044954,
        "meta_inclination": 99.0991,
        "meta_ra_of_asc_node": 149.8113,
        "meta_arg_of_pericenter": 69.7479,
        "meta_mean_anomaly": 291.4914,
        "meta_ephemeris_type": 0,
        "meta_classification_type": "U",
        "meta_norad_cat_id": 31069,
        "meta_element_set_no": 999,
        "meta_rev_at_epoch": 98723,
        "meta_bstar": 0.00048052273,
        "meta_mean_motion_dot": 2.275e-05,
        "meta_mean_motion_ddot": 0,
        "tle_line1": "1 31069U 99025BFP 25349.29055965  .00002275  00000+0  48052-3 0  9995",
        "tle_line2": "2 31069  99.0991 149.8113 0104495  69.7479 291.4914 14.57126924987230"
      },
      "geometry": {
        "type": "Point",
        "coordinates": [
          150.9207719482044,
          19.021742234272374
        ]
      }
    },
    {
      "type": "Feature",
      "properties": {
        "norad_id": 31071,
        "name": "FENGYUN 1C DEB",
        "group": "fengyun-1c-debris",
        "lat": 13.343434839305143,
        "lon": 69.28781889456111,
        "alt_km": 732.2637419576195,
        "timestamp": "2025-12-19T04:59:48.586514+00:00",
        "meta_object_name": "FENGYUN 1C DEB",
        "meta_object_id": "1999-025BFR",
        "meta_epoch": "2025-12-17T11:36:27.822240",
        "meta_mean_motion": 14.52669079,
        "meta_eccentricity": 0.00558821,
        "meta_inclination": 99.0414,
        "meta_ra_of_asc_node": 69.5951,
        "meta_arg_of_pericenter": 267.3702,
        "meta_mean_anomaly": 92.1094,
        "meta_ephemeris_type": 0,
        "meta_classification_type": "U",
        "meta_norad_cat_id": 31071,
        "meta_element_set_no": 999,
        "meta_rev_at_epoch": 65563,
        "meta_bstar": 0.00084122866,
        "meta_mean_motion_dot": 3.464e-05,
        "meta_mean_motion_ddot": 0,
        "tle_line1": "1 31071U 99025BFR 25351.48365535  .00003464  00000+0  84123-3 0  9999",
        "tle_line2": "2 31071  99.0414  69.5951 0055882 267.3702  92.1094 14.52669079655630"
      },
      "geometry": {
        "type": "Point",
        "coordinates": [
          69.28781889456111,
          13.343434839305143
        ]
      }
    }
  ]
}